{
  "norad_id": 54086,
  "name": "STARLINK-5211",
  "history": [
    {
      "epoch": "2026-03-28T16:53:04.012224Z",
      "apogee_km": 540.6545111733349,
      "perigee_km": 538.8182308657306,
      "latitude_deg": -1.5421118435123095e-05,
      "longitude_deg": 154.4784154511576,
      "height_km": 540.6500431232267,
      "semi_major_axis_km": 6917.873371019532,
      "eccentricity": 0.00013272,
      "inclination_deg": 53.2172,
      "raan_deg": 233.8653,
      "arg_perigee_deg": 91.1195,
      "mean_anomaly_deg": 268.9949,
      "mean_motion_rev_day": 15.08842296
    },
    {
      "epoch": "2026-03-29T02:25:22.379808Z",
      "apogee_km": 540.5768580602044,
      "perigee_km": 538.8833641914016,
      "latitude_deg": -2.7428017870671416e-05,
      "longitude_deg": 9.225145235658974,
      "height_km": 540.603732786471,
      "semi_major_axis_km": 6917.867111125803,
      "eccentricity": 0.0001224,
      "inclination_deg": 53.2175,
      "raan_deg": 232.0803,
      "arg_perigee_deg": 88.4916,
      "mean_anomaly_deg": 271.6216,
      "mean_motion_rev_day": 15.08844344
    }
  ]
}